GLOBALSTAR M069         
1 31573U 07020C   26188.03724610 -.00000072  00000+0  19240-3 0  9994
2 31573  51.9996 195.9424 0001877 191.7859 202.4465 12.23472106881230
GLOBALSTAR M072         
1 31574U 07020D   26188.03513550 -.00000080  00000+0  53259-4 0  9992
2 31574  51.9943  47.4055 0001614  18.7253 131.3324 11.91658655877349
GLOBALSTAR M066         
1 32265U 07048C   26187.72463889 -.00000046  00000+0  41400-3 0  9990
2 32265  51.9608   1.8266 0005643  85.1113 288.6771 12.30388599862631
GLOBALSTAR M079         
1 37188U 10054A   26188.03045366 -.00000100  00000+0  19121-4 0  9998
2 37188  52.0047  48.2647 0001071  64.0932  83.4218 12.62266480725053
GLOBALSTAR M074         
1 37189U 10054B   26187.03398463 -.00000098  00000+0  30384-4 0  9997
2 37189  52.0026  50.5602 0000832  79.0429  98.2745 12.62261915725539
GLOBALSTAR M076         
1 37190U 10054C   26187.91500122 -.00000098  00000+0  32941-4 0  9994
2 37190  52.0038  48.0833 0001062  76.5581  26.0722 12.62262107725368
GLOBALSTAR M077         
1 37191U 10054D   26187.23461645 -.00000064  00000+0  25917-3 0  9993
2 37191  51.9940 130.9494 0002413 207.8288 300.3196 11.67547921723362
GLOBALSTAR M075         
1 37192U 10054E   26188.17924494 -.00000089  00000+0  81765-4 0  9995
2 37192  51.9946  89.3214 0000614  51.6593 112.6591 12.62267713724460
GLOBALSTAR M073         
1 37193U 10054F   26187.75113979 -.00000094  00000+0  54222-4 0  9991
2 37193  52.0074   4.7402 0001109  84.5846 291.7864 12.62266881726404
GLOBALSTAR M083         
1 37739U 11033A   26187.54054336 -.00000082  00000+0  12080-3 0  9995
2 37739  51.9876 313.5840 0000902  96.2727 343.9772 12.62263900695393
GLOBALSTAR M088         
1 37740U 11033B   26188.13804428 -.00000098  00000+0  31808-4 0  9995
2 37740  52.0185 218.2412 0000228 155.2772 240.0255 12.62269257691012
GLOBALSTAR M091         
1 37741U 11033C   26187.99162575 -.00000098  00000+0  33767-4 0  9995
2 37741  51.9967 181.6215 0000210   1.5579  28.7919 12.62264140691780
GLOBALSTAR M085         
1 37742U 11033D   26187.21035332 -.00000086  00000+0  97885-4 0  9999
2 37742  52.0113 135.3081 0000572  21.1784 117.2647 12.62264232692190
GLOBALSTAR M081         
1 37743U 11033E   26187.93462024 -.00000092  00000+0  66453-4 0  9995
2 37743  51.9945 135.5174 0000485  44.1046  26.9012 12.62265325692439
GLOBALSTAR M089         
1 37744U 11033F   26188.14961659 -.00000094  00000+0  53348-4 0  9999
2 37744  51.9930  89.0185 0000623  82.0290  67.4631 12.62267530693309
GLOBALSTAR M084         
1 38040U 11080A   26187.67763269 -.00000091  00000+0  69683-4 0  9991
2 38040  52.0030 317.9472 0001006 117.5758 346.0140 12.62267775671222
GLOBALSTAR M080         
1 38041U 11080B   26187.56484193 -.00000092  00000+0  63730-4 0  9994
2 38041  52.0077 320.0153 0000417  84.0224 356.8185 12.62265488671335
GLOBALSTAR M082         
1 38042U 11080C   26187.58642197 -.00000095  00000+0  46668-4 0  9991
2 38042  52.0078 275.4537 0000302 112.4780 356.2185 12.62263903672045
GLOBALSTAR M092         
1 38043U 11080D   26187.02001582 -.00000081  00000+0  12781-3 0  9991
2 38043  52.0098   7.5744 0000843  89.6289  83.2293 12.62267535670423
GLOBALSTAR M090         
1 38044U 11080E   26187.53447406 -.00000087  00000+0  92001-4 0  9997
2 38044  52.0122 269.5743 0000506 106.9061   4.4358 12.62252898672153
GLOBALSTAR M086         
1 38045U 11080F   26188.16754264 -.00000088  00000+0  90750-4 0  9991
2 38045  51.9893 267.5438 0001643  99.8007 272.6491 12.62287691672188
GLOBALSTAR M097         
1 39072U 13005A   26187.16709501 -.00000104  00000+0 -90839-6 0  9994
2 39072  52.0014 185.5594 0000221  39.5863 320.5020 12.62271324619302
GLOBALSTAR M093         
1 39073U 13005B   26188.01131481 -.00000093  00000+0  57576-4 0  9991
2 39073  52.0076 176.3431 0000437  34.1994 325.8901 12.62266212619366
GLOBALSTAR M094         
1 39074U 13005C   26188.16952995 -.00000099  00000+0  24859-4 0  9993
2 39074  51.9960  89.9590 0000883  48.1361 311.9581 12.62268512620996
GLOBALSTAR M096         
1 39075U 13005D   26187.23285162 -.00000092  00000+0  63037-4 0  9990
2 39075  52.0052 141.6262 0000526  24.7774 335.3118 12.62265613619796
GLOBALSTAR M078         
1 39076U 13005E   26188.07697703 -.00000100  00000+0  19431-4 0  9991
2 39076  51.9847 223.0415 0000649 312.8916  47.1896 12.62259985618523
GLOBALSTAR M095         
1 39077U 13005F   26188.02449082 -.00000095  00000+0  47916-4 0  9994
2 39077  52.0055 220.8332 0000223   1.8049 358.2819 12.62263964618376
GLOBALSTAR M087         
1 52888U 22064A   26187.95845461 -.00000102  00000+0  10119-4 0  9990
2 52888  52.0012   2.2602 0000955  73.0178 287.0793 12.62269293193630
